HAWK-5A                 
1 52757U 22057AB  26171.39767378  .00016061  00000+0  27329-3 0  9998
2 52757  97.6616 330.4524 0005380  69.2298 290.9529 15.51490262226849
HAWK-6B                 
1 55324U 23011A   26171.46186860  .00004005  00000+0  17506-3 0  9992
2 55324  40.4999 332.9712 0001801  24.0785 336.0108 15.22959188188344
HAWK-6C                 
1 55326U 23011C   26171.46121352  .00003677  00000+0  16145-3 0  9991
2 55326  40.4987 329.8134 0002662  13.1214 346.9664 15.22954484188350
HAWK-6A                 
1 55327U 23011D   26170.87108723  .00003931  00000+0  17202-3 0  9991
2 55327  40.5001 334.8809 0002469   2.7787 357.3036 15.22952483188264
HAWK-7A                 
1 56191U 23054P   26171.25505014  .00004519  00000+0  17122-3 0  9999
2 56191  97.2695  58.5139 0004119  50.4513 309.7090 15.27387139177498
HAWK-7B                 
1 56193U 23054R   26171.25497021  .00004607  00000+0  17452-3 0  9993
2 56193  97.2721  56.7790 0003591  63.2325 296.9281 15.27385586177492
HAWK-7C                 
1 56200U 23054Y   26171.45139705  .00004491  00000+0  17017-3 0  9994
2 56200  97.2698  57.7382 0003502  54.1888 305.9677 15.27388086177529
