OBJECT_NAME,OBJECT_ID,EPOCH,MEAN_MOTION,ECCENTRICITY,INCLINATION,RA_OF_ASC_NODE,ARG_OF_PERICENTER,MEAN_ANOMALY,EPHEMERIS_TYPE,CLASSIFICATION_TYPE,NORAD_CAT_ID,ELEMENT_SET_NO,REV_AT_EPOCH,BSTAR,MEAN_MOTION_DOT,MEAN_MOTION_DDOT
HAWK-5A,2022-057AB,2026-06-20T09:32:39.014592,15.51490262,.000538,97.6616,330.4524,69.2298,290.9529,0,U,52757,999,22684,.27329E-3,.16061E-3,0
HAWK-6B,2023-011A,2026-06-20T11:05:05.447040,15.22959188,.0001801,40.4999,332.9712,24.0785,336.0108,0,U,55324,999,18834,.17506E-3,.4005E-4,0
HAWK-6C,2023-011C,2026-06-20T11:04:08.848128,15.22954484,.0002662,40.4987,329.8134,13.1214,346.9664,0,U,55326,999,18835,.16145E-3,.3677E-4,0
HAWK-6A,2023-011D,2026-06-19T20:54:21.936672,15.22952483,.00024698,40.5001,334.8809,2.7787,357.3036,0,U,55327,999,18826,.17201793E-3,.3931E-4,0
HAWK-7A,2023-054P,2026-06-20T06:07:16.332096,15.27387139,.0004119,97.2695,58.5139,50.4513,309.7090,0,U,56191,999,17749,.17122E-3,.4519E-4,0
HAWK-7B,2023-054R,2026-06-20T06:07:09.426144,15.27385586,.0003591,97.2721,56.7790,63.2325,296.9281,0,U,56193,999,17749,.17452E-3,.4607E-4,0
HAWK-7C,2023-054Y,2026-06-20T10:50:00.705120,15.27388086,.0003502,97.2698,57.7382,54.1888,305.9677,0,U,56200,999,17752,.17017E-3,.4491E-4,0
